[{"OBJECT_NAME":"SAOCOM 1A","OBJECT_ID":"2018-076A","EPOCH":"2026-04-11T20:10:31.189728","MEAN_MOTION":14.82145592,"ECCENTRICITY":0.000143,"INCLINATION":97.891,"RA_OF_ASC_NODE":289.5456,"ARG_OF_PERICENTER":87.722,"MEAN_ANOMALY":272.4157,"EPHEMERIS_TYPE":0,"CLASSIFICATION_TYPE":"U","NORAD_CAT_ID":43641,"ELEMENT_SET_NO":999,"REV_AT_EPOCH":40627,"BSTAR":4.1368e-5,"MEAN_MOTION_DOT":2.77e-6,"MEAN_MOTION_DDOT":0},{"OBJECT_NAME":"H-2A R/B","OBJECT_ID":"2018-084L","EPOCH":"2026-04-11T21:22:36.615648","MEAN_MOTION":15.42816887,"ECCENTRICITY":0.0023073,"INCLINATION":98.8684,"RA_OF_ASC_NODE":326.4061,"ARG_OF_PERICENTER":267.4284,"MEAN_ANOMALY":92.4318,"EPHEMERIS_TYPE":0,"CLASSIFICATION_TYPE":"U","NORAD_CAT_ID":43682,"ELEMENT_SET_NO":999,"REV_AT_EPOCH":41089,"BSTAR":0.000346,"MEAN_MOTION_DOT":0.00015197,"MEAN_MOTION_DDOT":0},{"OBJECT_NAME":"SAOCOM 1B","OBJECT_ID":"2020-059A","EPOCH":"2026-04-11T19:18:21.556224","MEAN_MOTION":14.8215777,"ECCENTRICITY":0.0001439,"INCLINATION":97.8896,"RA_OF_ASC_NODE":288.605,"ARG_OF_PERICENTER":83.3382,"MEAN_ANOMALY":276.7995,"EPHEMERIS_TYPE":0,"CLASSIFICATION_TYPE":"U","NORAD_CAT_ID":46265,"ELEMENT_SET_NO":999,"REV_AT_EPOCH":30365,"BSTAR":7.2146e-5,"MEAN_MOTION_DOT":5.22e-6,"MEAN_MOTION_DDOT":0},{"OBJECT_NAME":"CSS (TIANHE)","OBJECT_ID":"2021-035A","EPOCH":"2026-04-11T18:45:36.553248","MEAN_MOTION":15.62286818,"ECCENTRICITY":0.0004964,"INCLINATION":41.4683,"RA_OF_ASC_NODE":6.5596,"ARG_OF_PERICENTER":187.2317,"MEAN_ANOMALY":172.8451,"EPHEMERIS_TYPE":0,"CLASSIFICATION_TYPE":"U","NORAD_CAT_ID":48274,"ELEMENT_SET_NO":999,"REV_AT_EPOCH":28278,"BSTAR":0.00027476,"MEAN_MOTION_DOT":0.00024708,"MEAN_MOTION_DDOT":0},{"OBJECT_NAME":"COSMOS 2550","OBJECT_ID":"2021-056A","EPOCH":"2026-04-11T20:07:17.367744","MEAN_MOTION":15.33829176,"ECCENTRICITY":0.000838,"INCLINATION":67.1428,"RA_OF_ASC_NODE":300.6099,"ARG_OF_PERICENTER":270.0951,"MEAN_ANOMALY":89.9243,"EPHEMERIS_TYPE":0,"CLASSIFICATION_TYPE":"U","NORAD_CAT_ID":48865,"ELEMENT_SET_NO":999,"REV_AT_EPOCH":26854,"BSTAR":5.9956e-7,"MEAN_MOTION_DOT":-1.72e-6,"MEAN_MOTION_DDOT":0},{"OBJECT_NAME":"CZ-2C R/B","OBJECT_ID":"2022-058K","EPOCH":"2026-04-11T20:28:01.710912","MEAN_MOTION":15.56838708,"ECCENTRICITY":0.004062,"INCLINATION":50.187,"RA_OF_ASC_NODE":147.3687,"ARG_OF_PERICENTER":342.9078,"MEAN_ANOMALY":17.0523,"EPHEMERIS_TYPE":0,"CLASSIFICATION_TYPE":"U","NORAD_CAT_ID":52794,"ELEMENT_SET_NO":999,"REV_AT_EPOCH":21529,"BSTAR":0.00037545,"MEAN_MOTION_DOT":0.00028137,"MEAN_MOTION_DDOT":0},{"OBJECT_NAME":"CZ-2C R/B","OBJECT_ID":"2022-132E","EPOCH":"2026-04-11T20:17:58.392672","MEAN_MOTION":15.65148631,"ECCENTRICITY":0.0014147,"INCLINATION":97.2952,"RA_OF_ASC_NODE":106.2502,"ARG_OF_PERICENTER":334.8103,"MEAN_ANOMALY":25.2465,"EPHEMERIS_TYPE":0,"CLASSIFICATION_TYPE":"U","NORAD_CAT_ID":54039,"ELEMENT_SET_NO":999,"REV_AT_EPOCH":19555,"BSTAR":0.00038587,"MEAN_MOTION_DOT":0.00038243,"MEAN_MOTION_DDOT":0},{"OBJECT_NAME":"GSLV R/B","OBJECT_ID":"2022-138AN","EPOCH":"2026-04-11T14:40:21.355392","MEAN_MOTION":14.9698073,"ECCENTRICITY":0.0022865,"INCLINATION":87.3839,"RA_OF_ASC_NODE":155.3365,"ARG_OF_PERICENTER":38.1071,"MEAN_ANOMALY":322.1772,"EPHEMERIS_TYPE":0,"CLASSIFICATION_TYPE":"U","NORAD_CAT_ID":54149,"ELEMENT_SET_NO":999,"REV_AT_EPOCH":18885,"BSTAR":0.00018903,"MEAN_MOTION_DOT":2.213e-5,"MEAN_MOTION_DDOT":0},{"OBJECT_NAME":"XRISM","OBJECT_ID":"2023-137A","EPOCH":"2026-04-11T14:07:58.368000","MEAN_MOTION":15.11893627,"ECCENTRICITY":0.0007608,"INCLINATION":31.0022,"RA_OF_ASC_NODE":70.8033,"ARG_OF_PERICENTER":9.3191,"MEAN_ANOMALY":350.7587,"EPHEMERIS_TYPE":0,"CLASSIFICATION_TYPE":"U","NORAD_CAT_ID":57800,"ELEMENT_SET_NO":999,"REV_AT_EPOCH":14277,"BSTAR":0.0002401,"MEAN_MOTION_DOT":4.312e-5,"MEAN_MOTION_DDOT":0},{"OBJECT_NAME":"ACS3","OBJECT_ID":"2024-077B","EPOCH":"2026-04-11T17:52:17.073120","MEAN_MOTION":13.9134191,"ECCENTRICITY":0.007248,"INCLINATION":97.1901,"RA_OF_ASC_NODE":35.4291,"ARG_OF_PERICENTER":5.4266,"MEAN_ANOMALY":354.7668,"EPHEMERIS_TYPE":0,"CLASSIFICATION_TYPE":"U","NORAD_CAT_ID":59588,"ELEMENT_SET_NO":999,"REV_AT_EPOCH":9879,"BSTAR":0.02309,"MEAN_MOTION_DOT":0.00029849,"MEAN_MOTION_DDOT":0},{"OBJECT_NAME":"HTV-X1","OBJECT_ID":"2025-241A","EPOCH":"2026-04-11T18:39:15.818688","MEAN_MOTION":15.32621645,"ECCENTRICITY":0.0007405,"INCLINATION":51.6359,"RA_OF_ASC_NODE":273.5327,"ARG_OF_PERICENTER":301.7913,"MEAN_ANOMALY":58.2347,"EPHEMERIS_TYPE":0,"CLASSIFICATION_TYPE":"U","NORAD_CAT_ID":66174,"ELEMENT_SET_NO":999,"REV_AT_EPOCH":2601,"BSTAR":0.00018397,"MEAN_MOTION_DOT":5.518e-5,"MEAN_MOTION_DDOT":0},{"OBJECT_NAME":"SZ-21 MODULE","OBJECT_ID":"2025-246C","EPOCH":"2026-04-11T03:15:40.048416","MEAN_MOTION":15.71251716,"ECCENTRICITY":0.00041963,"INCLINATION":41.4754,"RA_OF_ASC_NODE":3.2372,"ARG_OF_PERICENTER":256.1188,"MEAN_ANOMALY":103.9188,"EPHEMERIS_TYPE":0,"CLASSIFICATION_TYPE":"U","NORAD_CAT_ID":66515,"ELEMENT_SET_NO":999,"REV_AT_EPOCH":2317,"BSTAR":0.00025254905,"MEAN_MOTION_DOT":0.00032766,"MEAN_MOTION_DDOT":0}]
