SAOCOM 1A               
1 43641U 18076A   26101.84063877  .00000277  00000+0  41368-4 0  9994
2 43641  97.8910 289.5456 0001430  87.7220 272.4157 14.82145592406275
H-2A R/B                
1 43682U 18084L   26101.89070157  .00015197  00000+0  34600-3 0  9999
2 43682  98.8684 326.4061 0023073 267.4284  92.4318 15.42816887410897
SAOCOM 1B               
1 46265U 20059A   26101.80441616  .00000522  00000+0  72146-4 0  9991
2 46265  97.8896 288.6050 0001439  83.3382 276.7995 14.82157770303659
CSS (TIANHE)            
1 48274U 21035A   26101.78167307  .00024708  00000+0  27476-3 0  9994
2 48274  41.4683   6.5596 0004964 187.2317 172.8451 15.62286818282788
COSMOS 2550             
1 48865U 21056A   26101.83839546 -.00000172  00000+0  59956-6 0  9991
2 48865  67.1428 300.6099 0008380 270.0951  89.9243 15.33829176268546
CZ-2C R/B               
1 52794U 22058K   26101.85279758  .00028137  00000+0  37545-3 0  9992
2 52794  50.1870 147.3687 0040620 342.9078  17.0523 15.56838708215299
CZ-2C R/B               
1 54039U 22132E   26101.84581473  .00038243  00000+0  38587-3 0  9994
2 54039  97.2952 106.2502 0014147 334.8103  25.2465 15.65148631195551
GSLV R/B                
1 54149U 22138AN  26101.61135828  .00002213  00000+0  18903-3 0  9994
2 54149  87.3839 155.3365 0022865  38.1071 322.1772 14.96980730188855
XRISM                   
1 57800U 23137A   26101.58887000  .00004312  00000+0  24010-3 0  9991
2 57800  31.0022  70.8033 0007608   9.3191 350.7587 15.11893627142774
ACS3                    
1 59588U 24077B   26101.74464205  .00029849  00000+0  23090-1 0  9993
2 59588  97.1901  35.4291 0072480   5.4266 354.7668 13.91341910 98796
HTV-X1                  
1 66174U 25241A   26101.77726642  .00005518  00000+0  18397-3 0  9998
2 66174  51.6359 273.5327 0007405 301.7913  58.2347 15.32621645 26017
SZ-21 MODULE            
1 66515U 25246C   26101.13588019  .00032766  00000+0  25255-3 0  9992
2 66515  41.4754   3.2372 0004196 256.1188 103.9188 15.71251716 23177
